TRANSPORTER-10 OBJECT AG
1 59128U 24043AG  26068.92552531  .00009498  00000+0  32170-3 0  9997
2 59128  97.5471 205.7101 0009300 226.5958 133.4509 15.30759727111920
STARLINK-35163          
1 65507U 25198R   26068.93051652  .00028588  00000+0  97372-3 0  9992
2 65507  53.1570 270.1161 0000823  94.8958 265.2136 15.30196936 28659
